[{"OBJECT_NAME":"STARLINK-5598","OBJECT_ID":"2023-014AG","EPOCH":"2026-03-09T10:19:02.756928","MEAN_MOTION":14.98322418,"ECCENTRICITY":0.00036198,"INCLINATION":69.9992,"RA_OF_ASC_NODE":85.1003,"ARG_OF_PERICENTER":272.2762,"MEAN_ANOMALY":87.7982,"EPHEMERIS_TYPE":0,"CLASSIFICATION_TYPE":"U","NORAD_CAT_ID":55421,"ELEMENT_SET_NO":999,"REV_AT_EPOCH":17152,"BSTAR":0.00015150647,"MEAN_MOTION_DOT":1.715e-5,"MEAN_MOTION_DDOT":0},{"OBJECT_NAME":"CZ-6A DEB","OBJECT_ID":"2024-140NJ","EPOCH":"2026-03-09T15:30:01.982592","MEAN_MOTION":15.1004937,"ECCENTRICITY":0.00567225,"INCLINATION":88.9288,"RA_OF_ASC_NODE":275.3548,"ARG_OF_PERICENTER":176.1403,"MEAN_ANOMALY":184.0287,"EPHEMERIS_TYPE":0,"CLASSIFICATION_TYPE":"U","NORAD_CAT_ID":61092,"ELEMENT_SET_NO":999,"REV_AT_EPOCH":8278,"BSTAR":0.0051635532,"MEAN_MOTION_DOT":0.00088127,"MEAN_MOTION_DDOT":0}]
